[
    {
        "Altitude(m)": 715016.7043172276,
        "Argument of Periapsis(deg)": 0.011390121186627068,
        "Eccentricity": 0.0,
        "Inclination(deg)": 45.0,
        "Latitude(deg)": -38.21600658621536,
        "Longitude(deg)": 85.77632604507949,
        "Mean Anomaly(deg)": -119.37588335251921,
        "RAAN(deg)": 314.9892480585418,
        "Satellite Name": "Constellation 1 1400",
        "Satellite Number": 1400,
        "Semi-Major Axis(m)": 7083131.272910544,
        "Time(s)": 190
    },
    {
        "Altitude(m)": 715027.7023709989,
        "Argument of Periapsis(deg)": 0.011450069192872472,
        "Eccentricity": 0.0,
        "Inclination(deg)": 45.0,
        "Latitude(deg)": -38.24269572657363,
        "Longitude(deg)": 85.84132646149001,
        "Mean Anomaly(deg)": -119.31518221226924,
        "RAAN(deg)": 314.9891914693762,
        "Satellite Name": "Constellation 1 1400",
        "Satellite Number": 1400,
        "Semi-Major Axis(m)": 7083131.272910544,
        "Time(s)": 191
    },
    {
        "Altitude(m)": 715038.6844859312,
        "Argument of Periapsis(deg)": 0.01151001719911788,
        "Eccentricity": 0.0,
        "Inclination(deg)": 45.0,
        "Latitude(deg)": -38.26934399327875,
        "Longitude(deg)": 85.90637724801311,
        "Mean Anomaly(deg)": -119.25448107201929,
        "RAAN(deg)": 314.98913488021066,
        "Satellite Name": "Constellation 1 1400",
        "Satellite Number": 1400,
        "Semi-Major Axis(m)": 7083131.272910544,
        "Time(s)": 192
    },
    {
        "Altitude(m)": 715049.650622144,
        "Argument of Periapsis(deg)": 0.011569965205363285,
        "Eccentricity": 0.0,
        "Inclination(deg)": 45.0,
        "Latitude(deg)": -38.29595131850698,
        "Longitude(deg)": 85.97147824439028,
        "Mean Anomaly(deg)": -119.19377993176955,
        "RAAN(deg)": 314.9890782910451,
        "Satellite Name": "Constellation 1 1400",
        "Satellite Number": 1400,
        "Semi-Major Axis(m)": 7083131.272910544,
        "Time(s)": 193
    },
    {
        "Altitude(m)": 715060.600739812,
        "Argument of Periapsis(deg)": 0.01162991321160869,
        "Eccentricity": 0.0,
        "Inclination(deg)": 45.0,
        "Latitude(deg)": -38.32251763440579,
        "Longitude(deg)": 86.0366297943017,
        "Mean Anomaly(deg)": -119.13307879151958,
        "RAAN(deg)": 314.98902170187955,
        "Satellite Name": "Constellation 1 1400",
        "Satellite Number": 1400,
        "Semi-Major Axis(m)": 7083131.272910544,
        "Time(s)": 194
    },
    {
        "Altitude(m)": 715071.5347991677,
        "Argument of Periapsis(deg)": 0.011689861217854095,
        "Eccentricity": 0.0,
        "Inclination(deg)": 45.0,
        "Latitude(deg)": -38.349042873094135,
        "Longitude(deg)": 86.10183173678217,
        "Mean Anomaly(deg)": -119.07237765126959,
        "RAAN(deg)": 314.9889651127139,
        "Satellite Name": "Constellation 1 1400",
        "Satellite Number": 1400,
        "Semi-Major Axis(m)": 7083131.272910544,
        "Time(s)": 195
    },
    {
        "Altitude(m)": 715082.4527604923,
        "Argument of Periapsis(deg)": 0.0117498092240995,
        "Eccentricity": 0.0,
        "Inclination(deg)": 45.0,
        "Latitude(deg)": -38.37552696666287,
        "Longitude(deg)": 86.16708407860818,
        "Mean Anomaly(deg)": -119.01167651101973,
        "RAAN(deg)": 314.98890852354833,
        "Satellite Name": "Constellation 1 1400",
        "Satellite Number": 1400,
        "Semi-Major Axis(m)": 7083131.272910544,
        "Time(s)": 196
    },
    {
        "Altitude(m)": 715093.3545841326,
        "Argument of Periapsis(deg)": 0.011809757230344905,
        "Eccentricity": 0.0,
        "Inclination(deg)": 45.0,
        "Latitude(deg)": -38.40196984717544,
        "Longitude(deg)": 86.23238682619926,
        "Mean Anomaly(deg)": -118.9509753707699,
        "RAAN(deg)": 314.9888519343828,
        "Satellite Name": "Constellation 1 1400",
        "Satellite Number": 1400,
        "Semi-Major Axis(m)": 7083131.272910544,
        "Time(s)": 197
    },
    {
        "Altitude(m)": 715104.2402304809,
        "Argument of Periapsis(deg)": 0.011869705236590313,
        "Eccentricity": 0.0,
        "Inclination(deg)": 45.0,
        "Latitude(deg)": -38.428371446668116,
        "Longitude(deg)": 86.29773998561676,
        "Mean Anomaly(deg)": -118.89027423051992,
        "RAAN(deg)": 314.9887953452172,
        "Satellite Name": "Constellation 1 1400",
        "Satellite Number": 1400,
        "Semi-Major Axis(m)": 7083131.272910544,
        "Time(s)": 198
    },
    {
        "Altitude(m)": 715115.1096599881,
        "Argument of Periapsis(deg)": 0.011929653242835719,
        "Eccentricity": 0.0,
        "Inclination(deg)": 45.0,
        "Latitude(deg)": -38.45473169715046,
        "Longitude(deg)": 86.36314356256196,
        "Mean Anomaly(deg)": -118.82957309026999,
        "RAAN(deg)": 314.9887387560517,
        "Satellite Name": "Constellation 1 1400",
        "Satellite Number": 1400,
        "Semi-Major Axis(m)": 7083131.272910544,
        "Time(s)": 199
    }
]